*******************************************************************************
JPL/HORIZONS               730 Athanasia (A912 GG)         2023-Sep-04 11:07:59
Rec #:     730 (+COV) Soln.date: 2023-Aug-24_15:02:31   # obs: 4408 (1912-2023)
 
IAU76/J2000 helio. ecliptic osc. elements (au, days, deg., period=Julian yrs):
 
  EPOCH=  2457886.5 ! 2017-May-13.00 (TDB)         Residual RMS= .24783
   EC= .1776034501301728   QR= 1.844961875973652   TP= 2457593.7267534477
   OM= 95.08162222808484   W=  123.4095611415249   IN= 4.234571786881774
   A= 2.243396906596558    MA= 85.87688589660691   ADIST= 2.641831937219463
   PER= 3.36022            N= .293322176           ANGMOM= .025355646
   DAN= 2.40813            DDN= 1.97909            L= 218.5632123
   B= 3.5338571            MOID= .84141999         TP= 2016-Jul-24.2267534477
 
Asteroid physical parameters (km, seconds, rotational period in hours):
   GM= n.a.                RAD= 2.2485             ROTPER= 5.7348
   H= 13.76                G= .150                 B-V= n.a.
                           ALBEDO= .289            STYP= n.a.

ASTEROID comments: 
1: soln ref.= JPL#51, OCC=0
2: source=ORB
*******************************************************************************


*******************************************************************************
Ephemeris / API_USER Mon Sep  4 11:07:59 2023 Pasadena, USA      / Horizons
*******************************************************************************
Target body name: 730 Athanasia (A912 GG)         {source: JPL#51}
Center body name: Solar System Barycenter (0)     {source: DE441}
Center-site name: BODY CENTER
*******************************************************************************
Start time      : A.D. 2023-Aug-12 00:00:00.0000 TDB
Stop  time      : A.D. 2023-Aug-13 00:00:00.0000 TDB
Step-size       : 2880 minutes
*******************************************************************************
Center geodetic : 0.0, 0.0, 0.0                   {E-lon(deg),Lat(deg),Alt(km)}
Center cylindric: 0.0, 0.0, 0.0                   {E-lon(deg),Dxy(km),Dz(km)}
Center radii    : (undefined)
Small perturbers: Yes                             {source: SB441-N16}
Output units    : KM-S
Calendar mode   : Mixed Julian/Gregorian
Output type     : GEOMETRIC cartesian states
Output format   : 2 (position and velocity)
Reference frame : Ecliptic of J2000.0
*******************************************************************************
Initial IAU76/J2000 heliocentric ecliptic osculating elements (au, days, deg.):
  EPOCH=  2457886.5 ! 2017-May-13.00 (TDB)         Residual RMS= .24783        
   EC= .1776034501301728   QR= 1.844961875973652   TP= 2457593.7267534477      
   OM= 95.08162222808484   W=  123.4095611415249   IN= 4.234571786881774       
  Equivalent ICRF heliocentric cartesian coordinates (au, au/d):
   X= 1.857147601703504E+00  Y=-1.164728850654194E+00  Z=-6.447851305516196E-01
  VX= 8.031950729836758E-03 VY= 7.490392367734928E-03 VZ= 2.545478934857873E-03
Asteroid physical parameters (km, seconds, rotational period in hours):        
   GM= n.a.                RAD= 2.2485             ROTPER= 5.7348              
   H= 13.76                G= .150                 B-V= n.a.                   
                           ALBEDO= .289            STYP= n.a.                  
*******************************************************************************
JDTDB
   X     Y     Z
   VX    VY    VZ
*******************************************************************************
$$SOE
2460168.500000000 = A.D. 2023-Aug-12 00:00:00.0000 TDB 
 X =-1.151420583158860E+07 Y =-2.914320835380321E+08 Z = 2.686781946309999E+06
 VX= 2.237391469752652E+01 VY=-3.558763963703055E+00 VZ=-1.626382227525685E+00
$$EOE
*******************************************************************************
 
TIME

  Barycentric Dynamical Time ("TDB" or T_eph) output was requested. This
continuous coordinate time is equivalent to the relativistic proper time
of a clock at rest in a reference frame co-moving with the solar system
barycenter but outside the system's gravity well. It is the independent
variable in the solar system relativistic equations of motion.

  TDB runs at a uniform rate of one SI second per second and is independent
of irregularities in Earth's rotation.
 
CALENDAR SYSTEM

  Mixed calendar mode was active such that calendar dates after AD 1582-Oct-15
(if any) are in the modern Gregorian system. Dates prior to 1582-Oct-5 (if any)
are in the Julian calendar system, which is automatically extended for dates
prior to its adoption on 45-Jan-1 BC.  The Julian calendar is useful for
matching historical dates. The Gregorian calendar more accurately corresponds
to the Earth's orbital motion and seasons. A "Gregorian-only" calendar mode is
available if such physical events are the primary interest.

REFERENCE FRAME AND COORDINATES

  Ecliptic at the standard reference epoch

    Reference epoch: J2000.0
    X-Y plane: adopted Earth orbital plane at the reference epoch
               Note: IAU76 obliquity of 84381.448 arcseconds wrt ICRF X-Y plane
    X-axis   : ICRF
    Z-axis   : perpendicular to the X-Y plane in the directional (+ or -) sense
               of Earth's north pole at the reference epoch.

  Symbol meaning:

    JDTDB    Julian Day Number, Barycentric Dynamical Time
      X      X-component of position vector (km)
      Y      Y-component of position vector (km)
      Z      Z-component of position vector (km)
      VX     X-component of velocity vector (km/sec)                           
      VY     Y-component of velocity vector (km/sec)                           
      VZ     Z-component of velocity vector (km/sec)                           

ABERRATIONS AND CORRECTIONS

 Geometric state vectors have NO corrections or aberrations applied.

Computations by ...

    Solar System Dynamics Group, Horizons On-Line Ephemeris System
    4800 Oak Grove Drive, Jet Propulsion Laboratory
    Pasadena, CA  91109   USA

    General site: https://ssd.jpl.nasa.gov/
    Mailing list: https://ssd.jpl.nasa.gov/email_list.html
    System news : https://ssd.jpl.nasa.gov/horizons/news.html
    User Guide  : https://ssd.jpl.nasa.gov/horizons/manual.html
    Connect     : browser        https://ssd.jpl.nasa.gov/horizons/app.html#/x
                  API            https://ssd-api.jpl.nasa.gov/doc/horizons.html
                  command-line   telnet ssd.jpl.nasa.gov 6775
                  e-mail/batch   https://ssd.jpl.nasa.gov/ftp/ssd/hrzn_batch.txt
                  scripts        https://ssd.jpl.nasa.gov/ftp/ssd/SCRIPTS
    Author      : Jon.D.Giorgini@jpl.nasa.gov
*******************************************************************************
